[{"OBJECT_NAME":"SL-8 R/B","OBJECT_ID":"1979-089B","EPOCH":"2026-04-14T19:29:26.997792","MEAN_MOTION":14.42374733,"ECCENTRICITY":0.0016092,"INCLINATION":74.0712,"RA_OF_ASC_NODE":24.1754,"ARG_OF_PERICENTER":190.9447,"MEAN_ANOMALY":169.1362,"EPHEMERIS_TYPE":0,"CLASSIFICATION_TYPE":"U","NORAD_CAT_ID":11574,"ELEMENT_SET_NO":999,"REV_AT_EPOCH":44131,"BSTAR":4.7808e-5,"MEAN_MOTION_DOT":1.32e-6,"MEAN_MOTION_DDOT":0},{"OBJECT_NAME":"SL-14 R/B","OBJECT_ID":"1980-005B","EPOCH":"2026-04-14T20:01:36.280416","MEAN_MOTION":14.90972669,"ECCENTRICITY":0.0016774,"INCLINATION":82.5112,"RA_OF_ASC_NODE":272.9378,"ARG_OF_PERICENTER":46.9489,"MEAN_ANOMALY":313.3132,"EPHEMERIS_TYPE":0,"CLASSIFICATION_TYPE":"U","NORAD_CAT_ID":11672,"ELEMENT_SET_NO":999,"REV_AT_EPOCH":48187,"BSTAR":3.3741e-5,"MEAN_MOTION_DOT":3.6e-6,"MEAN_MOTION_DDOT":0},{"OBJECT_NAME":"SL-8 R/B","OBJECT_ID":"1981-003B","EPOCH":"2026-04-14T19:25:27.433920","MEAN_MOTION":15.12567468,"ECCENTRICITY":0.0257541,"INCLINATION":82.9369,"RA_OF_ASC_NODE":256.5807,"ARG_OF_PERICENTER":53.1538,"MEAN_ANOMALY":309.301,"EPHEMERIS_TYPE":0,"CLASSIFICATION_TYPE":"U","NORAD_CAT_ID":12139,"ELEMENT_SET_NO":999,"REV_AT_EPOCH":32013,"BSTAR":0.00024789,"MEAN_MOTION_DOT":9.992e-5,"MEAN_MOTION_DDOT":0},{"OBJECT_NAME":"SL-3 R/B","OBJECT_ID":"1981-046B","EPOCH":"2026-04-14T20:29:00.251232","MEAN_MOTION":15.42900296,"ECCENTRICITY":0.0018076,"INCLINATION":81.2296,"RA_OF_ASC_NODE":246.2812,"ARG_OF_PERICENTER":252.5567,"MEAN_ANOMALY":107.37,"EPHEMERIS_TYPE":0,"CLASSIFICATION_TYPE":"U","NORAD_CAT_ID":12465,"ELEMENT_SET_NO":999,"REV_AT_EPOCH":44400,"BSTAR":0.00016323,"MEAN_MOTION_DOT":7.241e-5,"MEAN_MOTION_DDOT":0},{"OBJECT_NAME":"SL-3 R/B","OBJECT_ID":"1981-103B","EPOCH":"2026-04-14T19:25:28.151040","MEAN_MOTION":15.21785161,"ECCENTRICITY":0.0013719,"INCLINATION":81.16,"RA_OF_ASC_NODE":171.057,"ARG_OF_PERICENTER":160.5551,"MEAN_ANOMALY":199.6207,"EPHEMERIS_TYPE":0,"CLASSIFICATION_TYPE":"U","NORAD_CAT_ID":12904,"ELEMENT_SET_NO":999,"REV_AT_EPOCH":97872,"BSTAR":0.00010378,"MEAN_MOTION_DOT":2.385e-5,"MEAN_MOTION_DDOT":0},{"OBJECT_NAME":"SL-3 R/B","OBJECT_ID":"1982-013B","EPOCH":"2026-04-14T19:17:03.816960","MEAN_MOTION":15.22326681,"ECCENTRICITY":0.0023323,"INCLINATION":81.1713,"RA_OF_ASC_NODE":118.4281,"ARG_OF_PERICENTER":60.1973,"MEAN_ANOMALY":300.1574,"EPHEMERIS_TYPE":0,"CLASSIFICATION_TYPE":"U","NORAD_CAT_ID":13068,"ELEMENT_SET_NO":999,"REV_AT_EPOCH":40984,"BSTAR":0.00010166,"MEAN_MOTION_DOT":2.387e-5,"MEAN_MOTION_DDOT":0},{"OBJECT_NAME":"SL-3 R/B","OBJECT_ID":"1982-039B","EPOCH":"2026-04-14T20:00:03.745152","MEAN_MOTION":15.1027561,"ECCENTRICITY":0.0027928,"INCLINATION":81.1523,"RA_OF_ASC_NODE":174.2767,"ARG_OF_PERICENTER":202.3605,"MEAN_ANOMALY":157.6405,"EPHEMERIS_TYPE":0,"CLASSIFICATION_TYPE":"U","NORAD_CAT_ID":13154,"ELEMENT_SET_NO":999,"REV_AT_EPOCH":38709,"BSTAR":5.6467e-5,"MEAN_MOTION_DOT":9.56e-6,"MEAN_MOTION_DDOT":0},{"OBJECT_NAME":"SL-3 R/B","OBJECT_ID":"1982-079B","EPOCH":"2026-04-14T19:39:54.101088","MEAN_MOTION":15.25240613,"ECCENTRICITY":0.0024985,"INCLINATION":81.1459,"RA_OF_ASC_NODE":150.4076,"ARG_OF_PERICENTER":46.5109,"MEAN_ANOMALY":313.8196,"EPHEMERIS_TYPE":0,"CLASSIFICATION_TYPE":"U","NORAD_CAT_ID":13403,"ELEMENT_SET_NO":999,"REV_AT_EPOCH":38320,"BSTAR":9.79e-5,"MEAN_MOTION_DOT":2.509e-5,"MEAN_MOTION_DDOT":0},{"OBJECT_NAME":"SL-14 R/B","OBJECT_ID":"1982-092B","EPOCH":"2026-04-14T17:46:06.349728","MEAN_MOTION":14.86698475,"ECCENTRICITY":0.0020369,"INCLINATION":82.5645,"RA_OF_ASC_NODE":107.6684,"ARG_OF_PERICENTER":177.0593,"MEAN_ANOMALY":356.6168,"EPHEMERIS_TYPE":0,"CLASSIFICATION_TYPE":"U","NORAD_CAT_ID":13553,"ELEMENT_SET_NO":999,"REV_AT_EPOCH":33428,"BSTAR":2.598e-5,"MEAN_MOTION_DOT":2.57e-6,"MEAN_MOTION_DDOT":0},{"OBJECT_NAME":"SL-3 R/B","OBJECT_ID":"1983-010B","EPOCH":"2026-04-14T20:29:48.172128","MEAN_MOTION":15.47511197,"ECCENTRICITY":0.0015007,"INCLINATION":81.102,"RA_OF_ASC_NODE":317.8679,"ARG_OF_PERICENTER":282.0631,"MEAN_ANOMALY":77.8932,"EPHEMERIS_TYPE":0,"CLASSIFICATION_TYPE":"U","NORAD_CAT_ID":13819,"ELEMENT_SET_NO":999,"REV_AT_EPOCH":36353,"BSTAR":0.00014513,"MEAN_MOTION_DOT":7.518e-5,"MEAN_MOTION_DDOT":0},{"OBJECT_NAME":"SL-3 R/B","OBJECT_ID":"1983-075B","EPOCH":"2026-04-14T20:11:24.629856","MEAN_MOTION":15.39276226,"ECCENTRICITY":0.0023252,"INCLINATION":97.6131,"RA_OF_ASC_NODE":110.8123,"ARG_OF_PERICENTER":99.9957,"MEAN_ANOMALY":260.3913,"EPHEMERIS_TYPE":0,"CLASSIFICATION_TYPE":"U","NORAD_CAT_ID":14208,"ELEMENT_SET_NO":999,"REV_AT_EPOCH":33571,"BSTAR":0.00016791,"MEAN_MOTION_DOT":6.512e-5,"MEAN_MOTION_DDOT":0},{"OBJECT_NAME":"COSMOS 1536","OBJECT_ID":"1984-013A","EPOCH":"2026-04-14T08:54:05.956128","MEAN_MOTION":15.24329806,"ECCENTRICITY":0.00152706,"INCLINATION":82.543,"RA_OF_ASC_NODE":72.3584,"ARG_OF_PERICENTER":149.8709,"MEAN_ANOMALY":210.341,"EPHEMERIS_TYPE":0,"CLASSIFICATION_TYPE":"U","NORAD_CAT_ID":14699,"ELEMENT_SET_NO":999,"REV_AT_EPOCH":27805,"BSTAR":0.00015818427,"MEAN_MOTION_DOT":3.913e-5,"MEAN_MOTION_DDOT":0},{"OBJECT_NAME":"SL-14 R/B","OBJECT_ID":"1984-027B","EPOCH":"2026-04-14T07:32:27.599712","MEAN_MOTION":14.86015333,"ECCENTRICITY":0.00171787,"INCLINATION":82.544,"RA_OF_ASC_NODE":211.6042,"ARG_OF_PERICENTER":211.3006,"MEAN_ANOMALY":148.7189,"EPHEMERIS_TYPE":0,"CLASSIFICATION_TYPE":"U","NORAD_CAT_ID":14820,"ELEMENT_SET_NO":999,"REV_AT_EPOCH":25292,"BSTAR":3.0075448e-5,"MEAN_MOTION_DOT":2.88e-6,"MEAN_MOTION_DDOT":0},{"OBJECT_NAME":"SL-8 R/B","OBJECT_ID":"1985-006B","EPOCH":"2026-04-14T15:20:20.407776","MEAN_MOTION":14.378075,"ECCENTRICITY":0.0017243,"INCLINATION":74.0465,"RA_OF_ASC_NODE":194.9987,"ARG_OF_PERICENTER":101.2367,"MEAN_ANOMALY":5.6878,"EPHEMERIS_TYPE":0,"CLASSIFICATION_TYPE":"U","NORAD_CAT_ID":15483,"ELEMENT_SET_NO":999,"REV_AT_EPOCH":15919,"BSTAR":4.5675e-5,"MEAN_MOTION_DOT":1.12e-6,"MEAN_MOTION_DDOT":0},{"OBJECT_NAME":"SL-12 R/B(2)","OBJECT_ID":"1985-042D","EPOCH":"2026-04-14T12:31:14.591424","MEAN_MOTION":14.21992773,"ECCENTRICITY":0.00330585,"INCLINATION":71.1105,"RA_OF_ASC_NODE":12.026,"ARG_OF_PERICENTER":68.6305,"MEAN_ANOMALY":103.3804,"EPHEMERIS_TYPE":0,"CLASSIFICATION_TYPE":"U","NORAD_CAT_ID":15772,"ELEMENT_SET_NO":999,"REV_AT_EPOCH":11948,"BSTAR":6.5028084e-5,"MEAN_MOTION_DOT":9.7e-7,"MEAN_MOTION_DDOT":0},{"OBJECT_NAME":"SL-14 R/B","OBJECT_ID":"1985-069B","EPOCH":"2026-04-14T14:59:31.970112","MEAN_MOTION":14.86470625,"ECCENTRICITY":0.0020339,"INCLINATION":82.5292,"RA_OF_ASC_NODE":351.1524,"ARG_OF_PERICENTER":74.6608,"MEAN_ANOMALY":285.6854,"EPHEMERIS_TYPE":0,"CLASSIFICATION_TYPE":"U","NORAD_CAT_ID":15945,"ELEMENT_SET_NO":999,"REV_AT_EPOCH":17817,"BSTAR":2.64e-5,"MEAN_MOTION_DOT":2.59e-6,"MEAN_MOTION_DDOT":0},{"OBJECT_NAME":"SL-16 R/B","OBJECT_ID":"1985-097B","EPOCH":"2026-04-14T16:01:44.100192","MEAN_MOTION":14.16605296,"ECCENTRICITY":0.0008654,"INCLINATION":71.0027,"RA_OF_ASC_NODE":64.8048,"ARG_OF_PERICENTER":215.6616,"MEAN_ANOMALY":317.1719,"EPHEMERIS_TYPE":0,"CLASSIFICATION_TYPE":"U","NORAD_CAT_ID":16182,"ELEMENT_SET_NO":999,"REV_AT_EPOCH":9232,"BSTAR":0.00014383,"MEAN_MOTION_DOT":2.39e-6,"MEAN_MOTION_DDOT":0}]
