SL-8 R/B                
1 11574U 79089B   26104.81211803  .00000132  00000+0  47808-4 0  9994
2 11574  74.0712  24.1754 0016092 190.9447 169.1362 14.42374733441315
SL-14 R/B               
1 11672U 80005B   26104.83444769  .00000360  00000+0  33741-4 0  9998
2 11672  82.5112 272.9378 0016774  46.9489 313.3132 14.90972669481878
SL-8 R/B                
1 12139U 81003B   26104.80934530  .00009992  00000+0  24789-3 0  9994
2 12139  82.9369 256.5807 0257541  53.1538 309.3010 15.12567468320137
SL-3 R/B                
1 12465U 81046B   26104.85347513  .00007241  00000+0  16323-3 0  9997
2 12465  81.2296 246.2812 0018076 252.5567 107.3700 15.42900296444005
SL-3 R/B                
1 12904U 81103B   26104.80935360  .00002385  00000+0  10378-3 0  9995
2 12904  81.1600 171.0570 0013719 160.5551 199.6207 15.21785161978723
SL-3 R/B                
1 13068U 82013B   26104.80351640  .00002387  00000+0  10166-3 0  9998
2 13068  81.1713 118.4281 0023323  60.1973 300.1574 15.22326681409846
SL-3 R/B                
1 13154U 82039B   26104.83337668  .00000956  00000+0  56467-4 0  9994
2 13154  81.1523 174.2767 0027928 202.3605 157.6405 15.10275610387099
SL-3 R/B                
1 13403U 82079B   26104.81937617  .00002509  00000+0  97900-4 0  9996
2 13403  81.1459 150.4076 0024985  46.5109 313.8196 15.25240613383203
SL-14 R/B               
1 13553U 82092B   26104.74035127  .00000257  00000+0  25980-4 0  9991
2 13553  82.5645 107.6684 0020369 177.0593 356.6168 14.86698475334286
SL-3 R/B                
1 13819U 83010B   26104.85402977  .00007518  00000+0  14513-3 0  9996
2 13819  81.1020 317.8679 0015007 282.0631  77.8932 15.47511197363539
SL-3 R/B                
1 14208U 83075B   26104.84125729  .00006512  00000+0  16791-3 0  9999
2 14208  97.6131 110.8123 0023252  99.9957 260.3913 15.39276226335718
COSMOS 1536             
1 14699U 84013A   26104.37090227  .00003913  00000+0  15818-3 0  9999
2 14699  82.5430  72.3584 0015270 149.8709 210.3410 15.24329806278058
SL-14 R/B               
1 14820U 84027B   26104.31420833  .00000288  00000+0  30075-4 0  9999
2 14820  82.5440 211.6042 0017178 211.3006 148.7189 14.86015333252925
SL-8 R/B                
1 15483U 85006B   26104.63912509  .00000112  00000+0  45675-4 0  9992
2 15483  74.0465 194.9987 0017243 101.2367   5.6878 14.37807500159197
SL-12 R/B(2)            
1 15772U 85042D   26104.52169666  .00000097  00000+0  65028-4 0  9995
2 15772  71.1105  12.0260 0033058  68.6305 103.3804 14.21992773119484
SL-14 R/B               
1 15945U 85069B   26104.62467558  .00000259  00000+0  26400-4 0  9999
2 15945  82.5292 351.1524 0020339  74.6608 285.6854 14.86470625178178
SL-16 R/B               
1 16182U 85097B   26104.66787153  .00000239  00000+0  14383-3 0  9998
2 16182  71.0027  64.8048 0008654 215.6616 317.1719 14.16605296 92322
